{
    "RECORDS": [
        {
            "CCSDS_OPM_VERS": 63224.06,
            "CREATION_DATE": "2073-10-12T23:43:37.953Z",
            "ORIGINATOR": "Deckow - Heidenreich",
            "OBJECT_NAME": "AMam:im^r/",
            "OBJECT_ID": "4zNo2[2Aqb",
            "CENTER_NAME": "T<^O:|!]/{",
            "REF_FRAME": 6,
            "REF_FRAME_EPOCH": "2057-03-13T02:03:22.790Z",
            "TIME_SYSTEM": 3,
            "COMMENT": "8Cd/z'p6#=",
            "EPOCH": "2087-07-30T02:15:26.894Z",
            "X": 41453.95,
            "Y": 70012.52,
            "Z": 56726.78,
            "X_DOT": 42736.5,
            "Y_DOT": 55968.15,
            "Z_DOT": 8080.87,
            "SEMI_MAJOR_AXIS": 30942.32,
            "ECCENTRICITY": 95364.31,
            "INCLINATION": 18741,
            "RA_OF_ASC_NODE": 80714.88,
            "ARG_OF_PERICENTER": 88101.23,
            "TRUE_ANOMALY": 5217.35,
            "MEAN_ANOMALY": 82563.72,
            "GM": 28317.08,
            "MASS": 14299.99,
            "SOLAR_RAD_AREA": 19870.02,
            "SOLAR_RAD_COEFF": 40632.99,
            "DRAG_AREA": 73070.11,
            "DRAG_COEFF": 80072.83,
            "COV_REF_FRAME": 2,
            "CX_X": 80780.19,
            "CY_X": 7267.17,
            "CY_Y": 38003.06,
            "CZ_X": 93419.13,
            "CZ_Y": 90251.44,
            "CZ_Z": 49534.56,
            "CX_DOT_X": 13859.01,
            "CX_DOT_Y": 38552.91,
            "CX_DOT_Z": 98088.91,
            "CX_DOT_X_DOT": 13906.04,
            "CY_DOT_X": 38132.07,
            "CY_DOT_Y": 62643.43,
            "CY_DOT_Z": 63805.31,
            "CY_DOT_X_DOT": 74445.9,
            "CY_DOT_Y_DOT": 44031.39,
            "CZ_DOT_X": 93236.35,
            "CZ_DOT_Y": 9003.99,
            "CZ_DOT_Z": 18806.37,
            "CZ_DOT_X_DOT": 91612.31,
            "CZ_DOT_Y_DOT": 67243.62,
            "CZ_DOT_Z_DOT": 56850.64,
            "MANEUVERS": [
                {
                    "MAN_EPOCH_IGNITION": "2051-08-27T06:06:16.098Z",
                    "MAN_DURATION": 85935.45,
                    "MAN_DELTA_MASS": 24906.24,
                    "MAN_REF_FRAME": 2,
                    "MAN_DV_1": 21102.16,
                    "MAN_DV_2": 41279.22,
                    "MAN_DV_3": 83959.02
                },
                {
                    "MAN_EPOCH_IGNITION": "2059-06-01T00:21:24.284Z",
                    "MAN_DURATION": 39860.63,
                    "MAN_DELTA_MASS": 67341.71,
                    "MAN_REF_FRAME": 0,
                    "MAN_DV_1": 8995,
                    "MAN_DV_2": 94034.23,
                    "MAN_DV_3": 69859.44
                }
            ],
            "USER_DEFINED_BIP_0044_TYPE": 1138952494,
            "USER_DEFINED_OBJECT_DESIGNATOR": "d!7;I}Ca[*",
            "USER_DEFINED_EARTH_MODEL": "l((W*-`T'9",
            "USER_DEFINED_EPOCH_TIMESTAMP": 25433.43,
            "USER_DEFINED_EPOCH_MICROSECONDS": 58302.23
        },
        {
            "CCSDS_OPM_VERS": 33888.09,
            "CREATION_DATE": "2008-11-06T07:39:15.535Z",
            "ORIGINATOR": "Kreiger - Ritchie",
            "OBJECT_NAME": "N^ynb2!1N-",
            "OBJECT_ID": "$IUW2Z0EGh",
            "CENTER_NAME": ";X^Nlt\"bl\"",
            "REF_FRAME": 3,
            "REF_FRAME_EPOCH": "2007-10-21T02:53:33.382Z",
            "TIME_SYSTEM": 10,
            "COMMENT": "fG5uAp&8&8",
            "EPOCH": "2054-09-16T22:19:38.612Z",
            "X": 89252.54,
            "Y": 55370.38,
            "Z": 46541.41,
            "X_DOT": 53306.43,
            "Y_DOT": 35877.48,
            "Z_DOT": 80264.13,
            "SEMI_MAJOR_AXIS": 28466.4,
            "ECCENTRICITY": 16816.11,
            "INCLINATION": 19520.26,
            "RA_OF_ASC_NODE": 92253.29,
            "ARG_OF_PERICENTER": 97188,
            "TRUE_ANOMALY": 9108.97,
            "MEAN_ANOMALY": 17006.81,
            "GM": 61850.21,
            "MASS": 90303.36,
            "SOLAR_RAD_AREA": 6753.99,
            "SOLAR_RAD_COEFF": 98102.42,
            "DRAG_AREA": 75528.14,
            "DRAG_COEFF": 86631.95,
            "COV_REF_FRAME": 1,
            "CX_X": 96045.45,
            "CY_X": 58530.05,
            "CY_Y": 70796.76,
            "CZ_X": 16337.45,
            "CZ_Y": 39998.35,
            "CZ_Z": 12351.02,
            "CX_DOT_X": 40813.68,
            "CX_DOT_Y": 56156.28,
            "CX_DOT_Z": 40451.31,
            "CX_DOT_X_DOT": 17715.96,
            "CY_DOT_X": 8307.46,
            "CY_DOT_Y": 48598.35,
            "CY_DOT_Z": 32097.57,
            "CY_DOT_X_DOT": 72110.32,
            "CY_DOT_Y_DOT": 64419.24,
            "CZ_DOT_X": 10652.34,
            "CZ_DOT_Y": 22165.4,
            "CZ_DOT_Z": 61505.7,
            "CZ_DOT_X_DOT": 92598.64,
            "CZ_DOT_Y_DOT": 35241.5,
            "CZ_DOT_Z_DOT": 94720.96,
            "MANEUVERS": [
                {
                    "MAN_EPOCH_IGNITION": "2083-04-24T20:53:38.848Z",
                    "MAN_DURATION": 39340.39,
                    "MAN_DELTA_MASS": 36518.5,
                    "MAN_REF_FRAME": 1,
                    "MAN_DV_1": 36943.33,
                    "MAN_DV_2": 58171.22,
                    "MAN_DV_3": 91006.7
                },
                {
                    "MAN_EPOCH_IGNITION": "2010-09-14T01:47:38.439Z",
                    "MAN_DURATION": 19159.48,
                    "MAN_DELTA_MASS": 43917.95,
                    "MAN_REF_FRAME": 0,
                    "MAN_DV_1": 97197.65,
                    "MAN_DV_2": 71291.55,
                    "MAN_DV_3": 8655.13
                }
            ],
            "USER_DEFINED_BIP_0044_TYPE": 1833006048,
            "USER_DEFINED_OBJECT_DESIGNATOR": "j#f^>#YdB#",
            "USER_DEFINED_EARTH_MODEL": "^>r&LIe]|=",
            "USER_DEFINED_EPOCH_TIMESTAMP": 60356.97,
            "USER_DEFINED_EPOCH_MICROSECONDS": 37358.9
        },
        {
            "CCSDS_OPM_VERS": 34952.84,
            "CREATION_DATE": "2098-08-10T11:49:36.980Z",
            "ORIGINATOR": "Emard - McKenzie",
            "OBJECT_NAME": "Q|=+p0L91=",
            "OBJECT_ID": "YdD9p'4P||",
            "CENTER_NAME": "T59_RIXsgM",
            "REF_FRAME": 6,
            "REF_FRAME_EPOCH": "2015-01-19T17:21:34.182Z",
            "TIME_SYSTEM": 5,
            "COMMENT": "GyR\",'>|c\"",
            "EPOCH": "2007-11-24T08:51:51.376Z",
            "X": 18303.53,
            "Y": 28168.01,
            "Z": 7116.25,
            "X_DOT": 73067.2,
            "Y_DOT": 9041.55,
            "Z_DOT": 30998.02,
            "SEMI_MAJOR_AXIS": 61422.77,
            "ECCENTRICITY": 9952.7,
            "INCLINATION": 31178.84,
            "RA_OF_ASC_NODE": 10998.54,
            "ARG_OF_PERICENTER": 43998.77,
            "TRUE_ANOMALY": 24631.26,
            "MEAN_ANOMALY": 42722.94,
            "GM": 77997.2,
            "MASS": 83624.8,
            "SOLAR_RAD_AREA": 66618.79,
            "SOLAR_RAD_COEFF": 75035.1,
            "DRAG_AREA": 67924.41,
            "DRAG_COEFF": 63861.73,
            "COV_REF_FRAME": 1,
            "CX_X": 60171.57,
            "CY_X": 61105.29,
            "CY_Y": 72797.15,
            "CZ_X": 80266.86,
            "CZ_Y": 5552.65,
            "CZ_Z": 32885.66,
            "CX_DOT_X": 27991.62,
            "CX_DOT_Y": 32505.49,
            "CX_DOT_Z": 35960.27,
            "CX_DOT_X_DOT": 50404.68,
            "CY_DOT_X": 88944.87,
            "CY_DOT_Y": 60405.97,
            "CY_DOT_Z": 26063.25,
            "CY_DOT_X_DOT": 15282.98,
            "CY_DOT_Y_DOT": 20915,
            "CZ_DOT_X": 30041.6,
            "CZ_DOT_Y": 96978.67,
            "CZ_DOT_Z": 87666.11,
            "CZ_DOT_X_DOT": 67202.78,
            "CZ_DOT_Y_DOT": 9905.09,
            "CZ_DOT_Z_DOT": 1715.14,
            "MANEUVERS": [
                {
                    "MAN_EPOCH_IGNITION": "2067-12-01T15:16:44.699Z",
                    "MAN_DURATION": 80231.55,
                    "MAN_DELTA_MASS": 43411.51,
                    "MAN_REF_FRAME": 1,
                    "MAN_DV_1": 17527.47,
                    "MAN_DV_2": 97830.46,
                    "MAN_DV_3": 89059.98
                },
                {
                    "MAN_EPOCH_IGNITION": "2040-05-21T17:17:18.546Z",
                    "MAN_DURATION": 89496.21,
                    "MAN_DELTA_MASS": 43484.54,
                    "MAN_REF_FRAME": 2,
                    "MAN_DV_1": 93615.04,
                    "MAN_DV_2": 78717.59,
                    "MAN_DV_3": 43740.29
                }
            ],
            "USER_DEFINED_BIP_0044_TYPE": 261463199,
            "USER_DEFINED_OBJECT_DESIGNATOR": "G*#}^,u.xn",
            "USER_DEFINED_EARTH_MODEL": "f\\Ae7ARXNl",
            "USER_DEFINED_EPOCH_TIMESTAMP": 87491.57,
            "USER_DEFINED_EPOCH_MICROSECONDS": 94915.53
        }
    ]
}